{
  "type": "FeatureCollection",
  "features": [
    {
      "type": "Feature",
      "properties": {
        "norad_id": 59600,
        "name": "GSAT0227 (GALILEO 30)",
        "group": "gnss",
        "lat": -36.56884869956618,
        "lon": -42.62638933843934,
        "alt_km": 23229.54187536397,
        "timestamp": "2025-12-19T06:59:44.152503+00:00",
        "meta_object_name": "GSAT0227 (GALILEO 30)",
        "meta_object_id": "2024-079C",
        "meta_epoch": "2025-12-17T17:58:49.575360",
        "meta_mean_motion": 1.704749,
        "meta_eccentricity": 0.00029705,
        "meta_inclination": 54.9996,
        "meta_ra_of_asc_node": 106.1542,
        "meta_arg_of_pericenter": 116.5176,
        "meta_mean_anomaly": 243.4717,
        "meta_ephemeris_type": 0,
        "meta_classification_type": "U",
        "meta_norad_cat_id": 59600,
        "meta_element_set_no": 999,
        "meta_rev_at_epoch": 1027,
        "meta_bstar": 0,
        "meta_mean_motion_dot": -9e-08,
        "meta_mean_motion_ddot": 0,
        "tle_line1": "1 59600U 24079C   25351.74918490 -.00000009  00000+0  00000+0 0  9998",
        "tle_line2": "2 59600  54.9996 106.1542 0002970 116.5176 243.4717  1.70474900 10278"
      },
      "geometry": {
        "type": "Point",
        "coordinates": [
          -42.62638933843934,
          -36.56884869956618
        ]
      }
    },
    {
      "type": "Feature",
      "properties": {
        "norad_id": 61182,
        "name": "GSAT0232 (GALILEO 32)",
        "group": "gnss",
        "lat": 45.89978660526077,
        "lon": -87.99874822335607,
        "alt_km": 23221.517284435944,
        "timestamp": "2025-12-19T06:59:44.152514+00:00",
        "meta_object_name": "GSAT0232 (GALILEO 32)",
        "meta_object_id": "2024-167A",
        "meta_epoch": "2025-12-18T08:17:33.319392",
        "meta_mean_motion": 1.70473695,
        "meta_eccentricity": 0.0001893,
        "meta_inclination": 55.239,
        "meta_ra_of_asc_node": 226.2771,
        "meta_arg_of_pericenter": 209.3432,
        "meta_mean_anomaly": 351.1487,
        "meta_ephemeris_type": 0,
        "meta_classification_type": "U",
        "meta_norad_cat_id": 61182,
        "meta_element_set_no": 999,
        "meta_rev_at_epoch": 779,
        "meta_bstar": 0,
        "meta_mean_motion_dot": 6.2e-07,
        "meta_mean_motion_ddot": 0,
        "tle_line1": "1 61182U 24167A   25352.34552453  .00000062  00000+0  00000+0 0  9992",
        "tle_line2": "2 61182  55.2390 226.2771 0001893 209.3432 351.1487  1.70473695  7799"
      },
      "geometry": {
        "type": "Point",
        "coordinates": [
          -87.99874822335607,
          45.89978660526077
        ]
      }
    },
    {
      "type": "Feature",
      "properties": {
        "norad_id": 61183,
        "name": "GSAT0226 (GALILEO 31)",
        "group": "gnss",
        "lat": 5.207451668587624,
        "lon": 42.643442257997826,
        "alt_km": 23220.579315066698,
        "timestamp": "2025-12-19T06:59:44.152528+00:00",
        "meta_object_name": "GSAT0226 (GALILEO 31)",
        "meta_object_id": "2024-167B",
        "meta_epoch": "2025-12-18T17:01:42.722400",
        "meta_mean_motion": 1.70473755,
        "meta_eccentricity": 0.00010459,
        "meta_inclination": 55.2376,
        "meta_ra_of_asc_node": 226.2726,
        "meta_arg_of_pericenter": 106.7871,
        "meta_mean_anomaly": 69.7575,
        "meta_ephemeris_type": 0,
        "meta_classification_type": "U",
        "meta_norad_cat_id": 61183,
        "meta_element_set_no": 999,
        "meta_rev_at_epoch": 777,
        "meta_bstar": 0,
        "meta_mean_motion_dot": 6.4e-07,
        "meta_mean_motion_ddot": 0,
        "tle_line1": "1 61183U 24167B   25352.70952225  .00000064  00000+0  00000+0 0  9996",
        "tle_line2": "2 61183  55.2376 226.2726 0001045 106.7871  69.7575  1.70473755  7775"
      },
      "geometry": {
        "type": "Point",
        "coordinates": [
          42.643442257997826,
          5.207451668587624
        ]
      }
    },
    {
      "type": "Feature",
      "properties": {
        "norad_id": 61186,
        "name": "BEIDOU-3 M25 (C47)",
        "group": "gnss",
        "lat": 10.219504990555038,
        "lon": 121.11964064611475,
        "alt_km": 21537.157813872676,
        "timestamp": "2025-12-19T06:59:44.152541+00:00",
        "meta_object_name": "BEIDOU-3 M25 (C47)",
        "meta_object_id": "2024-168B",
        "meta_epoch": "2025-12-18T00:39:01.420992",
        "meta_mean_motion": 1.86230296,
        "meta_eccentricity": 0.00054425,
        "meta_inclination": 54.6373,
        "meta_ra_of_asc_node": 308.537,
        "meta_arg_of_pericenter": 299.044,
        "meta_mean_anomaly": 100.6746,
        "meta_ephemeris_type": 0,
        "meta_classification_type": "U",
        "meta_norad_cat_id": 61186,
        "meta_element_set_no": 999,
        "meta_rev_at_epoch": 841,
        "meta_bstar": 0,
        "meta_mean_motion_dot": -8.7e-07,
        "meta_mean_motion_ddot": 0,
        "tle_line1": "1 61186U 24168B   25352.02709978 -.00000087  00000+0  00000+0 0  9996",
        "tle_line2": "2 61186  54.6373 308.5370 0005442 299.0440 100.6746  1.86230296  8415"
      },
      "geometry": {
        "type": "Point",
        "coordinates": [
          121.11964064611475,
          10.219504990555038
        ]
      }
    },
    {
      "type": "Feature",
      "properties": {
        "norad_id": 61187,
        "name": "BEIDOU-3 M27 (C49)",
        "group": "gnss",
        "lat": -43.5326120953357,
        "lon": -93.9408155242789,
        "alt_km": 21527.559207070153,
        "timestamp": "2025-12-19T06:59:44.152553+00:00",
        "meta_object_name": "BEIDOU-3 M27 (C49)",
        "meta_object_id": "2024-168C",
        "meta_epoch": "2025-12-18T11:15:38.296800",
        "meta_mean_motion": 1.86230443,
        "meta_eccentricity": 0.00025049,
        "meta_inclination": 54.6324,
        "meta_ra_of_asc_node": 308.5054,
        "meta_arg_of_pericenter": 339.4033,
        "meta_mean_anomaly": 131.6614,
        "meta_ephemeris_type": 0,
        "meta_classification_type": "U",
        "meta_norad_cat_id": 61187,
        "meta_element_set_no": 999,
        "meta_rev_at_epoch": 589,
        "meta_bstar": 0,
        "meta_mean_motion_dot": -8.4e-07,
        "meta_mean_motion_ddot": 0,
        "tle_line1": "1 61187U 24168C   25352.46919325 -.00000084  00000+0  00000+0 0  9991",
        "tle_line2": "2 61187  54.6324 308.5054 0002504 339.4033 131.6614  1.86230443  5895"
      },
      "geometry": {
        "type": "Point",
        "coordinates": [
          -93.9408155242789,
          -43.5326120953357
        ]
      }
    },
    {
      "type": "Feature",
      "properties": {
        "norad_id": 62339,
        "name": "GPS BIII-7  (PRN 01)",
        "group": "gnss",
        "lat": -37.92426593927585,
        "lon": -51.72959295070591,
        "alt_km": 20158.957780496698,
        "timestamp": "2025-12-19T06:59:44.152564+00:00",
        "meta_object_name": "GPS BIII-7  (PRN 01)",
        "meta_object_id": "2024-242A",
        "meta_epoch": "2025-12-18T08:46:28.895808",
        "meta_mean_motion": 2.00568182,
        "meta_eccentricity": 0.0012509,
        "meta_inclination": 54.922,
        "meta_ra_of_asc_node": 341.5124,
        "meta_arg_of_pericenter": 345.6877,
        "meta_mean_anomaly": 17.1618,
        "meta_ephemeris_type": 0,
        "meta_classification_type": "U",
        "meta_norad_cat_id": 62339,
        "meta_element_set_no": 999,
        "meta_rev_at_epoch": 763,
        "meta_bstar": 0,
        "meta_mean_motion_dot": -8.5e-07,
        "meta_mean_motion_ddot": 0,
        "tle_line1": "1 62339U 24242A   25352.36561222 -.00000085  00000+0  00000+0 0  9993",
        "tle_line2": "2 62339  54.9220 341.5124 0012509 345.6877  17.1618  2.00568182  7636"
      },
      "geometry": {
        "type": "Point",
        "coordinates": [
          -51.72959295070591,
          -37.92426593927585
        ]
      }
    },
    {
      "type": "Feature",
      "properties": {
        "norad_id": 62850,
        "name": "NVS-02 (IRNSS-1K)",
        "group": "gnss",
        "lat": -14.59269399884581,
        "lon": -171.93478876178082,
        "alt_km": 33833.31904547026,
        "timestamp": "2025-12-19T06:59:44.152579+00:00",
        "meta_object_name": "NVS-02 (IRNSS-1K)",
        "meta_object_id": "2025-020A",
        "meta_epoch": "2025-12-18T01:29:52.441728",
        "meta_mean_motion": 2.17599272,
        "meta_eccentricity": 0.73474385,
        "meta_inclination": 20.9702,
        "meta_ra_of_asc_node": 325.733,
        "meta_arg_of_pericenter": 29.685,
        "meta_mean_anomaly": 356.832,
        "meta_ephemeris_type": 0,
        "meta_classification_type": "U",
        "meta_norad_cat_id": 62850,
        "meta_element_set_no": 999,
        "meta_rev_at_epoch": 703,
        "meta_bstar": 0.00017861505,
        "meta_mean_motion_dot": 3.61e-06,
        "meta_mean_motion_ddot": 0,
        "tle_line1": "1 62850U 25020A   25352.06241252  .00000361  00000+0  17862-3 0  9995",
        "tle_line2": "2 62850  20.9702 325.7330 7347438  29.6850 356.8320  2.17599272  7033"
      },
      "geometry": {
        "type": "Point",
        "coordinates": [
          -171.93478876178082,
          -14.59269399884581
        ]
      }
    }
  ]
}